              M50 Cartesian                         J2K Cartesian  
    -----------------------------------       --------------------------------
     X    =      -13271338.00                 X    =        -4004604.13
     Y    =       -4248639.83  feet           Y    =        -1339993.92  meter
     Z    =      -17370098.43                 Z    =        -5313957.95
     XDOT =       7758.974906                 XDOT =        2446.341920
     YDOT =     -23895.137990  feet/sec       YDOT =       -7256.336562  meter/sec
     ZDOT =        -93.892118                 ZDOT =         -16.932446
 
              TDR Cartesian                         TDR Cartesian  
    -----------------------------------       --------------------------------
     X    =        4252583.22                 X    =         1296187.37
     Y    =      -13156085.10  feet           Y    =        -4009974.74  meter
     Z    =      -17456592.83                 Z    =        -5320769.49
     XDOT =      22934.333999                 XDOT =        6990.385003
     YDOT =       7453.787116  feet/sec       YDOT =        2271.914313  meter/sec
     ZDOT =        -40.859371                 ZDOT =         -12.453936
  
  
    The mean element set is posted at the UTC for which position is
    just north of the next ascending node relative to the above
    vector time
 
 
    TWO LINE MEAN ELEMENT SET
  
    ISS
    1 25544U 98067A   17334.57514885  .00016717  00000-0  10270-3 0  9097
    2 25544  51.6395 288.8532 0003230 183.6633 176.4497 15.54047996  7628
  
  
    Satellite: ISS
    Catalog Number: 25544
    Epoch time:      17334.57514885   =   yrday.fracday
    Element set:     909
    Inclination:       51.6395  deg
    RA of node:       288.8532  deg
    Eccentricity:     .0003230     
    Arg of perigee:   183.6633  deg
    Mean anomaly:     176.4497  deg
    Mean motion:   15.54047996  rev/day
    Decay rate:    1.67170E-04  rev/day^2
    Epoch rev:             762
    Checksum:              349
 
 
    Coasting Arc #11 (Orbit 777)
    ---------------------------------------
 
    Vector Time (GMT): 2017/335/13:25:00.000
    Vector Time (MET): N/A
    Weight (LBS)     : 933686.4
 
              M50 Cartesian                         M50 Keplerian  
    -----------------------------------       --------------------------------
     X    =        3448105.26                 A    =         6778699.11  meter
     Y    =        2963146.11  meter          E    =           .0004137
     Z    =        5024424.96                 I    =           51.25829
     XDOT =      -3107.255279                 Wp   =           90.55319
     YDOT =       6763.953513  meter/sec      RA   =          283.13704  deg
     ZDOT =      -1855.330507                 TA   =           17.51798
                                              MA   =           17.50371
                                              Ha   =            221.156  n.mi
                                              Hp   =            214.865
 
              M50 Cartesian                         J2K Cartesian  
    -----------------------------------       --------------------------------
     X    =       11312681.29                 X    =         3390307.53
     Y    =        9721607.98  feet           Y    =         3001381.75  meter
     Z    =       16484333.86                 Z    =         5041034.95
     XDOT =     -10194.407083                 XDOT =       -3173.648185
     YDOT =      22191.448533  feet/sec       YDOT =        6728.834934  meter/sec
     ZDOT =      -6087.042346                 ZDOT =       -1870.585846
 
              TDR Cartesian                         TDR Cartesian  
    -----------------------------------       --------------------------------
     X    =       -9530980.37                 X    =        -2905042.82
     Y    =       11367893.43  feet           Y    =         3464933.92  meter
     Z    =       16557508.70                 Z    =         5046728.65
     XDOT =     -21531.519571                 XDOT =       -6562.807165
     YDOT =      -9080.129567  feet/sec       YDOT =       -2767.623492  meter/sec
     ZDOT =      -6155.811263                 ZDOT =       -1876.291273
  
  
    The mean element set is posted at the UTC for which position is
    just north of the next ascending node relative to the above
    vector time
 
 
    TWO LINE MEAN ELEMENT SET
  
    ISS
    1 25544U 98067A   17335.60402762  .00016717  00000-0  10270-3 0  9104
    2 25544  51.6401 283.7258 0003240 188.7762 171.3334 15.54063696  7781
  
  
    Satellite: ISS
    Catalog Number: 25544
    Epoch time:      17335.60402762   =   yrday.fracday
    Element set:     910
    Inclination:       51.6401  deg
    RA of node:       283.7258  deg
    Eccentricity:     .0003240     
    Arg of perigee:   188.7762  deg
    Mean anomaly:     171.3334  deg
    Mean motion:   15.54063696  rev/day
    Decay rate:    1.67170E-04  rev/day^2
    Epoch rev:             778
    Checksum:              309
 
 
    Coasting Arc #12 (Orbit 792)
    ---------------------------------------
 
    Vector Time (GMT): 2017/336/13:25:00.000
    Vector Time (MET): N/A
    Weight (LBS)     : 933686.4
 
              M50 Cartesian                         M50 Keplerian  
    -----------------------------------       --------------------------------
     X    =       -2812109.35                 A    =         6781729.61  meter
     Y    =       -4476373.33  meter          E    =           .0009334
     Z    =       -4258134.89                 I    =           51.26287
     XDOT =       3689.595659                 Wp   =          130.01734
     YDOT =      -5696.109659  meter/sec      RA   =          278.11648  deg
     ZDOT =       3550.699754                 TA   =          176.44925
                                              MA   =          176.44262
                                              Ha   =            221.199  n.mi
                                              Hp   =            214.811
 
              M50 Cartesian                         J2K Cartesian  
    -----------------------------------       --------------------------------
     X    =       -9226080.53                 X    =        -2741159.93
     Y    =      -14686264.21  feet           Y    =        -4507423.22  meter
     Z    =      -13970258.84                 Z    =        -4271623.60
     XDOT =      12104.972634                 XDOT =        3735.768909
     YDOT =     -18688.023815  feet/sec       YDOT =       -5654.592193  meter/sec
     ZDOT =      11649.277409                 ZDOT =        3568.734777
 
              TDR Cartesian                         TDR Cartesian  
    -----------------------------------       --------------------------------
     X    =       14366382.90                 X    =         4378873.51
     Y    =       -9631171.25  feet           Y    =        -2935581.00  meter
     Z    =      -14029349.00                 Z    =        -4276145.57
     XDOT =      18385.258517                 XDOT =        5603.826796
     YDOT =      10334.183613  feet/sec       YDOT =        3149.859165  meter/sec
     ZDOT =      11730.194277                 ZDOT =        3575.363216
  
  
    The mean element set is posted at the UTC for which position is
    just north of the next ascending node relative to the above
    vector time
 
 
    TWO LINE MEAN ELEMENT SET
  
    ISS
    1 25544U 98067A   17336.56859349  .00016717  00000-0  10270-3 0  9118
    2 25544  51.6409 278.9169 0003206 191.7110 168.3969 15.54080785  7934
  
  
    Satellite: ISS
    Catalog Number: 25544
    Epoch time:      17336.56859349   =   yrday.fracday
    Element set:     911
    Inclination:       51.6409  deg
    RA of node:       278.9169  deg
    Eccentricity:     .0003206     
    Arg of perigee:   191.7110  deg
    Mean anomaly:     168.3969  deg
    Mean motion:   15.54080785  rev/day
    Decay rate:    1.67170E-04  rev/day^2
    Epoch rev:             793
    Checksum:              346
 
 
    Coasting Arc #13 (Orbit 808)
    ---------------------------------------
 
    Vector Time (GMT): 2017/337/13:25:00.000
    Vector Time (MET): N/A
    Weight (LBS)     : 933686.4
 
              M50 Cartesian                         M50 Keplerian  
    -----------------------------------       --------------------------------
     X    =        2128173.98                 A    =         6785529.64  meter
     Y    =        5675773.64  meter          E    =           .0012979
     Z    =        3033454.93                 I    =           51.27199
     XDOT =      -4162.769734                 Wp   =          110.10102
     YDOT =       4186.593555  meter/sec      RA   =          273.10715  deg
     ZDOT =      -4900.183608                 TA   =           34.89331
                                              MA   =           34.80830
                                              Ha   =            221.066  n.mi
                                              Hp   =            214.955
 
              M50 Cartesian                         J2K Cartesian  
    -----------------------------------       --------------------------------
     X    =        6982198.11                 X    =         2049812.46
     Y    =       18621304.59  feet           Y    =         5699133.87  meter
     Z    =        9952279.95                 Z    =         3043603.40
     XDOT =     -13657.381018                 XDOT =       -4185.472800
     YDOT =      13735.543159  feet/sec       YDOT =        4139.916190  meter/sec
     ZDOT =     -16076.717873                 ZDOT =       -4920.460163
 
